IRIDIUM 106             
1 41917U 17003A   23319.91812679  .00000125  00000+0  37732-4 0  9997
2 41917  86.3942 123.1782 0002238  95.3384 264.8067 14.34217389357861
IRIDIUM 103             
1 41918U 17003B   23319.69614161  .00000119  00000+0  35336-4 0  9990
2 41918  86.3941 123.1735 0001826  99.5221 260.6181 14.34216820357856
IRIDIUM 109             
1 41919U 17003C   23319.98155481  .00000125  00000+0  37479-4 0  9995
2 41919  86.3943 123.0980 0001866  86.2791 273.8618 14.34219954357884
IRIDIUM 102             
1 41920U 17003D   23319.88008372  .00000117  00000+0  34630-4 0  9999
2 41920  86.3941 123.0842 0002019  85.5646 274.5780 14.34218651357930
IRIDIUM 105             
1 41921U 17003E   23319.78095569  .00003007  00000+0  10663-2 0  9992
2 41921  86.3952  91.5310 0002003  94.9524 265.1901 14.34209296359774
IRIDIUM 104             
1 41922U 17003F   23320.45090434  .00000115  00000+0  34084-4 0  9997
2 41922  86.3943 122.8738 0001821  93.3586 266.7818 14.34218277358003
IRIDIUM 114             
1 41923U 17003G   23320.45724087  .00000130  00000+0  39227-4 0  9997
2 41923  86.3942 122.8577 0002395  92.5616 267.5854 14.34216203358002
IRIDIUM 108             
1 41924U 17003H   23319.64831812  .00000025  00000+0  17560-5 0  9992
2 41924  86.3945  91.5258 0002196  99.2064 260.9380 14.34213759359728
